NORAD_CAT_ID,OBJECT_NAME,OBJECT_TYPE,EPOCH,MEAN_MOTION,ECCENTRICITY,INCLINATION,RA_OF_ASC_NODE,ARG_OF_PERICENTER,MEAN_ANOMALY,BSTAR,MEAN_MOTION_DOT,MEAN_MOTION_DDOT,TLE_LINE0,TLE_LINE1,TLE_LINE2,SEMIMAJOR_AXIS,PERIOD,APOGEE,PERIGEE,DECAYED
37853,RAX-2,PAYLOAD,2020-05-20 18:39:40,15.04111809,0.016826400000000002,101.7126,205.7933,173.5965,186.7452,5.9872e-05,9.74e-06,0.0,0 RAX-2,1 37853U 11061D   20141.77755650 +.00000974 +00000-0 +59872-4 0  9990,2 37853 101.7126 205.7933 0168264 173.5965 186.7452 15.04111809466670,6932.37,95.738,670.882,437.589,0.0
37853,RAX-2,PAYLOAD,2020-05-21 04:14:25,15.04112621,0.0168266,101.7126,206.396,172.4168,187.9648,5.701100000000003e-05,9.19e-06,0.0,0 RAX-2,1 37853U 11061D   20142.17668803 +.00000919 +00000-0 +57011-4 0  9990,2 37853 101.7126 206.3960 0168266 172.4168 187.9648 15.04112621466732,6932.368,95.738,670.8810000000002,437.585,0.0
37853,RAX-2,PAYLOAD,2020-05-21 18:36:33,15.04113907,0.016827099999999998,101.7126,207.3002,170.642,189.7994,5.3593e-05,8.55e-06,0.0,0 RAX-2,1 37853U 11061D   20142.77538474  .00000855  00000-0  53593-4 0  9996,2 37853 101.7126 207.3002 0168271 170.6420 189.7994 15.04113907467303,6932.364000000001,95.73700000000001,670.8810000000002,437.577,0.0
37853,RAX-2,PAYLOAD,2020-05-21 20:12:20,15.04114075,0.016827099999999998,101.7125,207.4006,170.4455,190.0025,5.3451e-05,8.52e-06,0.0,0 RAX-2,1 37853U 11061D   20142.84190652 +.00000852 +00000-0 +53451-4 0  9996,2 37853 101.7125 207.4006 0168271 170.4455 190.0025 15.04114075466837,6932.363,95.73700000000001,670.88,437.577,0.0
37853,RAX-2,PAYLOAD,2020-05-22 02:35:30,15.04114627,0.016827099999999998,101.7125,207.8024,169.6591,190.8153,5.1841999999999996e-05,8.21e-06,0.0,0 RAX-2,1 37853U 11061D   20143.10799370 +.00000821 +00000-0 +51842-4 0  9996,2 37853 101.7125 207.8024 0168271 169.6591 190.8153 15.04114627466879,6932.361999999999,95.73700000000001,670.878,437.575,0.0
37853,RAX-2,PAYLOAD,2020-05-22 18:33:25,15.04115839,0.0168281,101.7124,208.80700000000002,167.6882,192.8519,4.7508e-05,7.39e-06,0.0,0 RAX-2,1 37853U 11061D   20143.77321137 +.00000739 +00000-0 +47508-4 0  9993,2 37853 101.7124 208.8070 0168281 167.6882 192.8519 15.04115839466977,6932.358,95.73700000000001,670.8810000000002,437.565,0.0
37853,RAX-2,PAYLOAD,2020-05-23 05:43:57,15.04117096,0.016828299999999997,101.7123,209.5103,166.3119,194.2739,4.8369e-05,7.55e-06,0.0,0 RAX-2,1 37853U 11061D   20144.23886311 +.00000755 +00000-0 +48369-4 0  9999,2 37853 101.7123 209.5103 0168283 166.3119 194.2739 15.04117096467521,6932.354,95.73700000000001,670.8789999999998,437.559,0.0
37853,RAX-2,PAYLOAD,2020-05-23 15:18:42,15.04117794,0.0168289,101.7122,210.113,165.1299,195.495,4.591e-05,7.09e-06,0.0,0 RAX-2,1 37853U 11061D   20144.63799304 +.00000709 +00000-0 +45910-4 0  9996,2 37853 101.7122 210.1130 0168289 165.1299 195.4950 15.04117794467107,6932.352,95.73700000000001,670.8810000000002,437.55300000000005,0.0
37853,RAX-2,PAYLOAD,2020-05-24 21:38:44,15.04119995,0.0168296,101.7119,212.0216,161.3952,199.3513,4.2102e-05,6.37e-06,0.0,0 RAX-2,1 37853U 11061D   20145.90190325 +.00000637 +00000-0 +42102-4 0  9995,2 37853 101.7119 212.0216 0168296 161.3952 199.3513 15.04119995467777,6932.345,95.73700000000001,670.8789999999998,437.542,0.0
37853,RAX-2,PAYLOAD,2020-05-26 15:09:18,15.04123487,0.016828700000000002,101.7116,214.6332,156.2885,204.6198,4.4493e-05,6.82e-06,0.0,0 RAX-2,1 37853U 11061D   20147.63146060  .00000682  00000-0  44493-4 0  9999,2 37853 101.7116 214.6332 0168287 156.2885 204.6198 15.04123487468039,6932.335,95.73700000000001,670.862,437.537,0.0
37853,RAX-2,PAYLOAD,2020-05-27 03:55:37,15.04124394,0.0168282,101.7115,215.4368,154.7186,206.2381,4.5407e-05,7.000000000000003e-06,0.0,0 RAX-2,1 37853U 11061D   20148.16363148 +.00000700 +00000-0 +45407-4 0  9993,2 37853 101.7115 215.4368 0168282 154.7186 206.2381 15.04124394467633,6932.3319999999985,95.73700000000001,670.855,437.538,0.0
37853,RAX-2,PAYLOAD,2020-05-27 18:17:44,15.04125409,0.0168281,101.7114,216.3408,152.9509,208.0596,4.6183e-05,7.15e-06,0.0,0 RAX-2,1 37853U 11061D   20148.76232315 +.00000715 +00000-0 +46183-4 0  9998,2 37853 101.7114 216.3408 0168281 152.9509 208.0596 15.04125409468205,6932.329000000002,95.73700000000001,670.852,437.536,0.0
37853,RAX-2,PAYLOAD,2020-05-28 03:52:29,15.04126392,0.0168273,101.7113,216.9435,151.7746,209.2712,4.9597e-05,7.8e-06,0.0,0 RAX-2,1 37853U 11061D   20149.16145053 +.00000780 +00000-0 +49597-4 0  9999,2 37853 101.7113 216.9435 0168273 151.7746 209.2712 15.04126392467788,6932.326,95.73700000000001,670.8430000000002,437.538,0.0
37853,RAX-2,PAYLOAD,2020-05-28 18:14:36,15.04127653,0.0168267,101.7113,217.8475,150.0072,211.0908,5.236600000000001e-05,8.33e-06,0.0,0 RAX-2,1 37853U 11061D   20149.76014112 +.00000833 +00000-0 +52366-4 0  9993,2 37853 101.7113 217.8475 0168267 150.0072 211.0908 15.04127653467878,6932.321999999999,95.73700000000001,670.835,437.539,0.0
37853,RAX-2,PAYLOAD,2020-05-29 03:49:20,15.04128928,0.016826499999999998,101.7112,218.4501,148.8331,212.2991,5.8198999999999996e-05,9.44e-06,0.0,0 RAX-2,1 37853U 11061D   20150.15926769  .00000944  00000-0  58199-4 0  9991,2 37853 101.7112 218.4501 0168265 148.8331 212.2991 15.04128928468417,6932.318,95.736,670.829,437.536,0.0
37853,RAX-2,PAYLOAD,2020-05-29 18:11:27,15.04130137,0.016825,101.7112,219.3542,147.0665,214.1163,6.045e-05,9.87e-06,0.0,0 RAX-2,1 37853U 11061D   20150.75795732 +.00000987 +00000-0 +60450-4 0  9991,2 37853 101.7112 219.3542 0168250 147.0665 214.1163 15.04130137468021,6932.314,95.736,670.815,437.543,0.0
37853,RAX-2,PAYLOAD,2020-05-30 06:57:46,15.04131452,0.016824000000000002,101.7112,220.1576,145.4999,215.7269,6.4147e-05,1.057e-05,0.0,0 RAX-2,1 37853U 11061D   20151.29012513  .00001057  00000-0  64147-4 0  9996,2 37853 101.7112 220.1576 0168240 145.4999 215.7269 15.04131452468585,6932.31,95.736,670.804,437.546,0.0
37853,RAX-2,PAYLOAD,2020-05-30 18:08:18,15.04133427,0.0168231,101.7112,220.8607,144.1267,217.138,7.3001e-05,1.226e-05,0.0,0 RAX-2,1 37853U 11061D   20151.75577085 +.00001226 +00000-0 +73001-4 0  9994,2 37853 101.7112 220.8607 0168231 144.1267 217.1380 15.04133427468170,6932.304,95.736,670.7919999999998,437.546,0.0
37853,RAX-2,PAYLOAD,2020-05-31 02:07:15,15.04134388,0.0168233,101.7112,221.363,143.1485,218.1428,7.5216e-05,1.268e-05,0.0,0 RAX-2,1 37853U 11061D   20152.08837476 +.00001268 +00000-0 +75216-4 0  9990,2 37853 101.7112 221.3630 0168233 143.1485 218.1428 15.04134388468222,6932.3009999999995,95.736,670.79,437.542,0.0
37853,RAX-2,PAYLOAD,2020-05-31 06:54:37,15.0413545,0.016823400000000002,101.7112,221.6643,142.5618,218.7453,8.0625e-05,1.371e-05,0.0,0 RAX-2,1 37853U 11061D   20152.28793681 +.00001371 +00000-0 +80625-4 0  9996,2 37853 101.7112 221.6643 0168234 142.5618 218.7453 15.04135450468259,6932.2980000000025,95.736,670.788,437.538,0.0
37853,RAX-2,PAYLOAD,2020-06-01 00:28:19,15.04137254,0.016822,101.7112,222.7692,140.4038,220.9602,8.232299999999999e-05,1.404e-05,0.0,0 RAX-2,1 37853U 11061D   20153.01966448 +.00001404 +00000-0 +82323-4 0  9995,2 37853 101.7112 222.7692 0168220 140.4038 220.9602 15.04137254468843,6932.2919999999995,95.736,670.7719999999998,437.542,0.0
37853,RAX-2,PAYLOAD,2020-06-01 18:02:00,15.04139523,0.0168211,101.7112,223.8741,138.2432,223.1759,8.6078e-05,1.475e-05,0.0,0 RAX-2,1 37853U 11061D   20153.75139047 +.00001475 +00000-0 +86078-4 0  9992,2 37853 101.7112 223.8741 0168211 138.2432 223.1759 15.04139523468471,6932.285,95.736,670.7589999999999,437.542,0.0
37853,RAX-2,PAYLOAD,2020-06-02 02:00:56,15.04140749,0.0168196,101.7112,224.3763,137.2602,224.1832,8.8463e-05,1.521e-05,0.0,0 RAX-2,1 37853U 11061D   20154.08399244  .00001521  00000-0  88463-4 0  9998,2 37853 101.7112 224.3763 0168196 137.2602 224.1832 15.04140749469006,6932.281999999997,95.736,670.745,437.548,0.0
37853,RAX-2,PAYLOAD,2020-06-02 11:35:41,15.04142899,0.0168189,101.7113,224.979,136.0801,225.3922,9.636100000000001e-05,1.671e-05,0.0,0 RAX-2,1 37853U 11061D   20154.48311398 +.00001671 +00000-0 +96361-4 0  9998,2 37853 101.7113 224.9790 0168189 136.0801 225.3922 15.04142899468586,6932.275,95.736,670.7330000000002,437.54699999999997,0.0
37853,RAX-2,PAYLOAD,2020-06-02 17:58:50,15.04143548,0.016818400000000004,101.7113,225.3808,135.2953,226.1958,9.487e-05,1.643e-05,0.0,0 RAX-2,1 37853U 11061D   20154.74919516 +.00001643 +00000-0 +94870-4 0  9995,2 37853 101.7113 225.3808 0168184 135.2953 226.1958 15.04143548468620,6932.273,95.736,670.7280000000002,437.548,0.0
37853,RAX-2,PAYLOAD,2020-06-03 09:56:43,15.04146341,0.0168174,101.7114,226.3852,133.3303,228.2067,9.945200000000001e-05,1.73e-05,0.0,0 RAX-2,1 37853U 11061D   20155.41439632  .00001730  00000-0  99452-4 0  9994,2 37853 101.7114 226.3852 0168174 133.3303 228.2067 15.04146341469201,6932.264,95.735,670.712,437.54699999999997,0.0
37853,RAX-2,PAYLOAD,2020-06-03 17:55:40,15.04147387,0.016816900000000003,101.7114,226.8875,132.3464,229.213,9.802299999999999e-05,1.703e-05,0.0,0 RAX-2,1 37853U 11061D   20155.74699648 +.00001703 +00000-0 +98023-4 0  9998,2 37853 101.7114 226.8875 0168169 132.3464 229.2130 15.04147387468776,6932.2609999999995,95.735,670.705,437.54699999999997,0.0
37853,RAX-2,PAYLOAD,2020-06-04 09:53:33,15.04150299,0.0168163,101.7115,227.892,130.382,231.2209,0.00010081,1.756e-05,0.0,0 RAX-2,1 37853U 11061D   20156.41219509 +.00001756 +00000-0 +10081-3 0  9992,2 37853 101.7115 227.8920 0168163 130.3820 231.2209 15.04150299468874,6932.2519999999995,95.735,670.692,437.542,0.0
37853,RAX-2,PAYLOAD,2020-06-04 17:52:30,15.04151337,0.016816099999999997,101.7115,228.3942,129.3983,232.2257,9.769399999999999e-05,1.697e-05,0.0,0 RAX-2,1 37853U 11061D   20156.74479401  .00001697  00000-0  97694-4 0  9997,2 37853 101.7115 228.3942 0168161 129.3983 232.2257 15.04151337469408,6932.249,95.735,670.687,437.541,0.0
